NORAD_CAT_ID,OBJECT_NAME,OBJECT_TYPE,EPOCH,MEAN_MOTION,ECCENTRICITY,INCLINATION,RA_OF_ASC_NODE,ARG_OF_PERICENTER,MEAN_ANOMALY,BSTAR,MEAN_MOTION_DOT,MEAN_MOTION_DDOT,TLE_LINE0,TLE_LINE1,TLE_LINE2,SEMIMAJOR_AXIS,PERIOD,APOGEE,PERIGEE,DECAYED
51112.0,STARLINK-3374,PAYLOAD,2024-02-03 13:26:22,15.08840343,0.0001474,53.2161,123.9229,104.1023,256.0133,4.6851e-05,4.58e-06,0.0,0 STARLINK-3374,1 51112U 22005J   24034.55997985  .00000458  00000-0  46851-4 0  9994,2 51112  53.2161 123.9229 0001474 104.1023 256.0133 15.08840343113376,6917.879,95.438,540.764,538.725,0.0
51112.0,STARLINK-3374,PAYLOAD,2024-02-03 15:01:45,15.08840831,0.0001386,53.216,123.625,89.9786,270.1365,9.2816e-05,1.19e-05,0.0,0 STARLINK-3374,1 51112U 22005J   24034.62621930  .00001190  00000-0  92816-4 0  9992,2 51112  53.2160 123.6250 0001386  89.9786 270.1365 15.08840831113381,6917.878,95.438,540.702,538.784,0.0
51112.0,STARLINK-3374,PAYLOAD,2024-02-04 13:17:08,15.08850652,0.0001564,53.2164,119.4635,76.911,283.2057,0.0001633,2.313e-05,0.0,0 STARLINK-3374,1 51112U 22005J   24035.55357609  .00002313  00000-0  16330-3 0  9998,2 51112  53.2164 119.4635 0001564  76.9110 283.2057 15.08850652113521,6917.848,95.437,540.795,538.631,0.0
51112.0,STARLINK-3374,PAYLOAD,2024-02-05 11:32:33,15.08842776,0.0001395,53.2168,115.3002,88.3412,271.774,0.00013327,1.834e-05,0.0,0 STARLINK-3374,1 51112U 22005J   24036.48094045  .00001834  00000-0  13327-3 0  9993,2 51112  53.2168 115.3002 0001395  88.3412 271.7740 15.08842776114779,6917.872,95.437,540.702,538.772,0.0
51112.0,STARLINK-3374,PAYLOAD,2024-02-06 11:23:20,15.08848579,0.0001493,53.2162,110.8391,95.8565,264.2598,0.00011267,1.506e-05,0.0,0 STARLINK-3374,1 51112U 22005J   24037.47453718  .00001506  00000-0  11267-3 0  9996,2 51112  53.2162 110.8391 0001493  95.8565 264.2598 15.08848579113814,6917.854,95.437,540.752,538.686,0.0
51112.0,STARLINK-3374,PAYLOAD,2024-02-07 03:17:11,15.08842749,0.0001725,53.2168,107.8662,99.4609,260.6578,0.00010429,1.372e-05,0.0,0 STARLINK-3374,1 51112U 22005J   24038.13694022  .00001372  00000-0  10429-3 0  9995,2 51112  53.2168 107.8662 0001725  99.4609 260.6578 15.08842749115020,6917.872,95.437,540.93,538.544,0.0
51112.0,STARLINK-3374,PAYLOAD,2024-02-07 11:14:07,15.08844204,0.0001349,53.2165,106.3796,87.9782,272.1364,8.1869e-05,1.015e-05,0.0,0 STARLINK-3374,1 51112U 22005J   24038.46813805  .00001015  00000-0  81869-4 0  9994,2 51112  53.2165 106.3796 0001349  87.9782 272.1364 15.08844204113965,6917.868,95.437,540.666,538.799,0.0
51112.0,STARLINK-3374,PAYLOAD,2024-02-08 04:43:22,15.08832558,0.0001592,53.217,103.1097,102.7068,257.4102,9.5997e-05,1.24e-05,0.0,0 STARLINK-3374,1 51112U 22005J   24039.19678527  .00001240  00000-0  95997-4 0  9992,2 51112  53.2170 103.1097 0001592 102.7068 257.4102 15.08832558115184,6917.903,95.438,540.869,538.667,0.0
51112.0,STARLINK-3374,PAYLOAD,2024-02-08 11:04:54,15.08846407,0.0001383,53.2162,101.9183,92.9455,267.1695,6.2859e-05,7.13e-06,0.0,0 STARLINK-3374,1 51112U 22005J   24039.46173875  .00000713  00000-0  62859-4 0  9993,2 51112  53.2162 101.9183 0001383  92.9455 267.1695 15.08846407115223,6917.861,95.437,540.683,538.769,0.0
51112.0,STARLINK-3374,PAYLOAD,2024-02-09 09:20:18,15.08836805,0.0001442,53.2173,97.7593,89.5239,270.5918,7.4564e-05,8.99e-06,0.0,0 STARLINK-3374,1 51112U 22005J   24040.38910628  .00000899  00000-0  74564-4 0  9992,2 51112  53.2173  97.7593 0001442  89.5239 270.5918 15.08836805115362,6917.89,95.438,540.753,538.758,0.0
51112.0,STARLINK-3374,PAYLOAD,2024-02-10 09:11:06,15.08839211,0.0001573,53.2166,93.2976,105.9887,254.1278,5.5927e-05,6.02e-06,0.0,0 STARLINK-3374,1 51112U 22005J   24041.38270834  .00000602  00000-0  55927-4 0  9995,2 51112  53.2166  93.2976 0001573 105.9887 254.1278 15.08839211114402,6917.883,95.438,540.836,538.66,0.0
51112.0,STARLINK-3374,PAYLOAD,2024-02-11 02:40:20,15.08806232,0.0001933,53.218,90.0277,70.698,289.4221,0.00060346,9.32e-05,0.0,0 STARLINK-3374,1 51112U 22005J   24042.11135236  .00009320  00000-0  60346-3 0  9999,2 51112  53.2180  90.0277 0001933  70.6980 289.4221 15.08806232115620,6917.984,95.44,541.186,538.511,0.0
51112.0,STARLINK-3374,PAYLOAD,2024-02-11 10:37:15,15.08851704,0.0001884,53.218,88.5398,106.9389,253.181,-1.5869e-05,-5.41e-06,0.0,0 STARLINK-3374,1 51112U 22005J   24042.44254516 -.00000541  00000-0 -15869-4 0  9997,2 51112  53.2180  88.5398 0001884 106.9389 253.1810 15.08851704115678,6917.845,95.437,541.013,538.406,0.0
51112.0,STARLINK-3374,PAYLOAD,2024-02-12 12:03:16,15.09044198,0.000174,53.217,83.7812,62.5302,297.5867,0.0029073,0.00046548,0.0,0 STARLINK-3374,1 51112U 22005J   24043.50227448  .00046548  00000-0  29073-2 0  9994,2 51112  53.2170  83.7812 0001740  62.5302 297.5867 15.09044198115832,6917.256,95.425,540.325,537.918,0.0
51112.0,STARLINK-3374,PAYLOAD,2024-02-13 11:53:14,15.09653588,0.0001539,53.2164,79.3134,124.2683,235.8455,0.0088188,0.00146217,0.0,0 STARLINK-3374,1 51112U 22005J   24044.49530238  .00146217  00000-0  88188-2 0  9993,2 51112  53.2164  79.3134 0001539 124.2683 235.8455 15.09653588115980,6915.395,95.386,538.324,536.195,0.0
51112.0,STARLINK-3374,PAYLOAD,2024-02-13 13:28:31,15.09728984,0.0001157,53.216,79.015,111.1092,249.0024,0.0096099,0.00160002,0.0,0 STARLINK-3374,1 51112U 22005J   24044.56147478  .00160002  00000-0  96099-2 0  9999,2 51112  53.2160  79.0150 0001157 111.1092 249.0024 15.09728984114886,6915.164,95.381,537.83,536.229,0.0
51112.0,STARLINK-3374,PAYLOAD,2024-02-13 22:00:00,15.10436358,0.000162,53.2151,77.4168,85.0639,46.972,0.002231,0.00037001,0.0,0 STARLINK-3374,1 51112U 22005J   24044.91667824  .00037001  00000-0  22310-2 0  9997,2 51112  53.2151  77.4168 0001620  85.0639  46.9720 15.10436358  5821,6913.005,95.337,535.99,533.75,0.0
51112.0,STARLINK-3374,PAYLOAD,2024-02-14 14:00:01,15.10598438,0.0001648,53.2154,74.4182,54.4458,104.5612,-0.02563,-0.00405035,0.0,0 STARLINK-3374,1 51112U 22005J   24045.58334491 -.00405035  00000-0 -25630-1 0  9997,2 51112  53.2154  74.4182 0001648  54.4458 104.5612 15.10598438116154,6912.511,95.326,535.515,533.237,0.0
51112.0,STARLINK-3374,PAYLOAD,2024-02-14 22:00:01,15.10229907,0.000133,53.2158,72.9162,42.7889,129.8493,-0.031712,-0.00494947,0.0,0 STARLINK-3374,1 51112U 22005J   24045.91668981 -.00494947  00000-0 -31712-1 0  9996,2 51112  53.2158  72.9162 0001330  42.7889 129.8493 15.10229907116200,6913.635,95.35,536.42,534.581,0.0
51112.0,STARLINK-3374,PAYLOAD,2024-02-15 14:00:01,15.09556952,0.0001756,53.216,69.9202,39.437,158.8472,-0.029595,-0.00451465,0.0,0 STARLINK-3374,1 51112U 22005J   24046.58334491 -.00451465  00000-0 -29595-1 0  9990,2 51112  53.2160  69.9202 0001756  39.4370 158.8472 15.09556952116305,6915.69,95.392,538.769,536.34,0.0
51112.0,STARLINK-3374,PAYLOAD,2024-02-15 16:00:00,15.09496113,0.0001643,53.216,69.5452,40.5859,250.7956,-0.032428,-0.0049592,0.0,0 STARLINK-3374,1 51112U 22005J   24046.66667824 -.00495920  00000-0 -32428-1 0  9991,2 51112  53.2160  69.5452 0001643  40.5859 250.7956 15.09496113  5788,6915.876,95.396,538.877,536.604,0.0
51112.0,STARLINK-3374,PAYLOAD,2024-02-16 05:01:13,15.09517145,0.0001257,53.2172,67.1076,48.1434,311.9665,-0.0095151,-0.00151339,0.0,0 STARLINK-3374,1 51112U 22005J   24047.20917961 -.00151339  00000-0 -95151-2 0  9998,2 51112  53.2172  67.1076 0001257  48.1434 311.9665 15.09517145116397,6915.811,95.395,538.546,536.807,0.0
51112.0,STARLINK-3374,PAYLOAD,2024-02-16 08:11:59,15.09390302,0.0001877,53.217,66.5139,53.6333,306.4832,-0.010266,-0.00162448,0.0,0 STARLINK-3374,1 51112U 22005J   24047.34166598 -.00162448  00000-0 -10266-1 0  9991,2 51112  53.2170  66.5139 0001877  53.6333 306.4832 15.09390302116417,6916.199,95.403,539.362,536.766,0.0
51112.0,STARLINK-3374,PAYLOAD,2024-02-16 12:58:05,15.09331516,0.0002016,53.2172,65.6213,59.5854,300.5338,-0.0098958,-0.00156479,0.0,0 STARLINK-3374,1 51112U 22005J   24047.54033603 -.00156479  00000-0 -98958-2 0  9995,2 51112  53.2172  65.6213 0002016  59.5854 300.5338 15.09331516115339,6916.378,95.406,539.638,536.849,0.0
51112.0,STARLINK-3374,PAYLOAD,2024-02-16 16:08:49,15.09282936,0.0001755,53.217,65.0265,67.2998,292.8179,-0.009742,-0.00153898,0.0,0 STARLINK-3374,1 51112U 22005J   24047.67279170 -.00153898  00000-0 -97420-2 0  9995,2 51112  53.2170  65.0265 0001755  67.2998 292.8179 15.09282936116464,6916.527,95.41,539.606,537.178,0.0
51112.0,STARLINK-3374,PAYLOAD,2024-02-17 06:00:00,15.08870943,0.0001795,53.2164,62.4364,63.9687,193.2183,-0.0040055,-0.00063528,0.0,0 STARLINK-3374,1 51112U 22005J   24048.25001157 -.00063528  00000-0 -40055-2 0  9990,2 51112  53.2164  62.4364 0001795  63.9687 193.2183 15.08870943116559,6917.786,95.436,540.893,538.409,0.0
51112.0,STARLINK-3374,PAYLOAD,2024-02-17 14:00:01,15.08826518,0.0001785,53.216,60.9403,63.7275,205.067,0.00073659,0.0001145,0.0,0 STARLINK-3374,1 51112U 22005J   24048.58334491  .00011450  00000-0  73659-3 0  9998,2 51112  53.2160  60.9403 0001785  63.7275 205.0670 15.08826518  5764,6917.922,95.438,541.021,538.552,0.0
51112.0,STARLINK-3374,PAYLOAD,2024-02-17 22:00:00,15.08814261,0.0001693,53.216,59.4424,73.7726,206.6128,0.0041884,0.00066957,0.0,0 STARLINK-3374,1 51112U 22005J   24048.91667824  .00066957  00000-0  41884-2 0  9990,2 51112  53.2160  59.4424 0001693  73.7726 206.6128 15.08814261116658,6917.959,95.439,540.995,538.653,0.0
51112.0,STARLINK-3374,PAYLOAD,2024-02-18 14:00:01,15.08823862,0.0001644,53.2156,56.4512,73.6879,229.9055,0.00016581,2.351e-05,0.0,0 STARLINK-3374,1 51112U 22005J   24049.58334491  .00002351  00000-0  16581-3 0  9990,2 51112  53.2156  56.4512 0001644  73.6879 229.9055 15.08823862116757,6917.93,95.439,540.932,538.657,0.0
51112.0,STARLINK-3374,PAYLOAD,2024-02-18 22:00:00,15.08829846,0.0001683,53.2156,54.9532,82.565,232.6403,0.0044247,0.0007082,0.0,0 STARLINK-3374,1 51112U 22005J   24049.91667824  .00070820  00000-0  44247-2 0  9991,2 51112  53.2156  54.9532 0001683  82.5650 232.6403 15.08829846116803,6917.911,95.438,540.941,538.612,0.0
